M2 PATHFINDER           
1 45727U 20037E   26190.25752302  .00001519  00000+0  11208-3 0  9991
2 45727  97.8157  21.7386 0013329  80.7061 279.5671 15.04779974328813
NETSAT-4                
1 46504U 20068U   26189.96216266  .00012979  00000+0  28089-3 0  9996
2 46504  97.8610 199.9635 0004022 219.0374 141.0584 15.44607877319137
NETSAT-3                
1 46505U 20068V   26189.98491666  .00013306  00000+0  29931-3 0  9990
2 46505  97.8661 198.1779 0003177 241.5566 118.5361 15.43456567319046
NETSAT-1                
1 46506U 20068W   26190.23581022  .00009005  00000+0  26649-3 0  9991
2 46506  97.8752 192.5160 0002497 300.1737  59.9257 15.35153967318686
NETSAT-2                
1 46507U 20068X   26189.97064587  .00016384  00000+0  32665-3 0  9996
2 46507  97.8620 199.9501 0001471 244.6815 115.4281 15.46967375319102
GREENCUBE (IO-117)      
1 53109U 22080E   26190.28466997 -.00000003  00000+0  00000+0 0  9991
2 53109  70.1425 290.5613 0009027 284.8400  75.1260  6.42583278 93489
SITRO-AIS 5 (KATYS)     
1 57176U 23091L   26190.31073941  .00008795  00000+0  30516-3 0  9993
2 57176  97.5050 254.4263 0011290  32.8022 327.3917 15.29976293167728
SITRO-AIS 6 (CHIRKIN)   
1 57192U 23091AC  26190.27576385  .00007335  00000+0  28444-3 0  9992
2 57192  97.5058 253.3916 0011796  36.6238 323.5805 15.26364934167655
SITRO-AIS 8 (ANOKHIN)   
1 57193U 23091AD  26190.28844133  .00010150  00000+0  32286-3 0  9991
2 57193  97.5046 256.0840 0010134  28.9865 331.1938 15.32752333167837
SITRO-AIS 7 (FARTUSHNIY)
1 57194U 23091AE  26190.28349895  .00006638  00000+0  26023-3 0  9995
2 57194  97.5054 253.2127 0011744  37.7553 322.4507 15.26041703167643
SITRO-AIS 10 (BURDAEV)  
1 57199U 23091AK  26190.29039380  .00015832  00000+0  40538-3 0  9999
2 57199  97.5071 261.3724 0005411   5.6180 354.5125 15.39473618168162
SITRO-AIS 9 (SHCHUKIN)  
1 57201U 23091AM  26190.25894542  .00015232  00000+0  39666-3 0  9992
2 57201  97.5069 261.0525 0005695   5.7312 354.3997 15.38961967168142
SITRO-AIS 12 (SMIRENNIY)
1 57204U 23091AQ  26190.31037549  .00015609  00000+0  40257-3 0  9994
2 57204  97.5082 261.5863 0005200 359.1925   0.9311 15.39256749168171
SITRO-AIS 11 (SHEFFER)  
1 57208U 23091AU  26190.25259270  .00015670  00000+0  39837-3 0  9998
2 57208  97.5080 261.7878 0005122 358.9995   1.1239 15.39696508168182
SITRO-AIS 25            
1 59066U 24039R   26190.28420742  .00001794  00000+0  14205-3 0  9996
2 59066  95.3896 250.2773 0142417 250.4648 108.1151 14.93621925128024
SITRO-AIS 26            
1 59067U 24039S   26190.28861890  .00001806  00000+0  14366-3 0  9992
2 59067  95.3897 250.1733 0142749 251.0615 107.5094 14.93414086128016
SITRO-AIS 27            
1 59068U 24039T   26190.31963442  .00002302  00000+0  18066-3 0  9996
2 59068  95.3901 250.4768 0141845 249.4910 109.1044 14.93838708128046
SITRO-AIS 28            
1 59071U 24039U   26190.29657869  .00001985  00000+0  15604-3 0  9991
2 59071  95.3901 250.5094 0141719 249.4050 109.1926 14.93871044128047
GRBBETA                 
1 60237U 24128C   26190.31968764  .00002568  00000+0  18354-3 0  9991
2 60237  61.9890 138.6053 0037769 139.4381 220.9537 15.06782844109609
OOV-CUBE (TUBSAT-30)    
1 60240U 24128F   26189.61355635  .00001358  00000+0  11477-3 0  9998
2 60240  61.9939 150.8549 0041932 138.4682 221.9608 15.02856535109338
ROBUSTA-3A (MEDITERRAN*)
1 60243U 24128J   26190.22635085  .00005214  00000+0  31033-3 0  9995
2 60243  61.9854 130.2913 0038630 132.7445 227.6912 15.11930024109752
LASARSAT                
1 62391U 24247Q   26190.25332936  .00029396  00000+0  55886-3 0  9994
2 62391  44.9739 138.0904 0006560 123.7678 236.3838 15.47760337 86735
CROCUBE                 
1 62394U 24247T   26189.90057851  .00030882  00000+0  54549-3 0  9994
2 62394  44.9702 137.0377 0006664 127.4839 232.6659 15.49837294 86713
FORESAIL-1 PRIME        
1 66778U 25276DS  26190.00167946  .00003136  00000+0  15352-3 0  9998
2 66778  97.4190 262.8749 0003328  58.2823 301.8736 15.18903079 33713
KNACKSAT-2              
1 67683U 98067XZ  26189.28582417  .00035828  00000+0  40782-3 0  9992
2 67683  51.6260 188.2015 0008208 303.7179  56.3032 15.61884949 23576
