OBJECT_NAME,OBJECT_ID,EPOCH,MEAN_MOTION,ECCENTRICITY,INCLINATION,RA_OF_ASC_NODE,ARG_OF_PERICENTER,MEAN_ANOMALY,EPHEMERIS_TYPE,CLASSIFICATION_TYPE,NORAD_CAT_ID,ELEMENT_SET_NO,REV_AT_EPOCH,BSTAR,MEAN_MOTION_DOT,MEAN_MOTION_DDOT
M2 PATHFINDER,2020-037E,2026-07-09T06:10:49.988928,15.04779974,.00133298,97.8157,21.7386,80.7061,279.5671,0,U,45727,999,32881,.11208283E-3,.1519E-4,0
NETSAT-4,2020-068U,2026-07-08T23:05:30.853824,15.44607877,.00040229,97.8610,199.9635,219.0374,141.0584,0,U,46504,999,31913,.28089212E-3,.12979E-3,0
NETSAT-3,2020-068V,2026-07-08T23:38:16.799424,15.43456567,.00031776,97.8661,198.1779,241.5566,118.5361,0,U,46505,999,31904,.29930822E-3,.13306E-3,0
NETSAT-1,2020-068W,2026-07-09T05:39:34.003008,15.35153967,.00024972,97.8752,192.5160,300.1737,59.9257,0,U,46506,999,31868,.2664861E-3,.9005E-4,0
NETSAT-2,2020-068X,2026-07-08T23:17:43.803168,15.46967375,.00014715,97.8620,199.9501,244.6815,115.4281,0,U,46507,999,31910,.32664641E-3,.16384E-3,0
GREENCUBE (IO-117),2022-080E,2026-07-09T06:49:55.485408,6.42583278,.00090276,70.1425,290.5613,284.8400,75.1260,0,U,53109,999,9348,0,-.3E-7,0
SITRO-AIS 5 (KATYS),2023-091L,2026-07-09T07:27:27.885024,15.29976293,.001129,97.5050,254.4263,32.8022,327.3917,0,U,57176,999,16772,.30515926E-3,.8795E-4,0
SITRO-AIS 6 (CHIRKIN),2023-091AC,2026-07-09T06:37:05.996640,15.26364934,.00117969,97.5058,253.3916,36.6238,323.5805,0,U,57192,999,16765,.28444492E-3,.7335E-4,0
SITRO-AIS 8 (ANOKHIN),2023-091AD,2026-07-09T06:55:21.330912,15.32752333,.00101343,97.5046,256.0840,28.9865,331.1938,0,U,57193,999,16783,.3228642E-3,.1015E-3,0
SITRO-AIS 7 (FARTUSHNIY),2023-091AE,2026-07-09T06:48:14.309280,15.26041703,.00117444,97.5054,253.2127,37.7553,322.4507,0,U,57194,999,16764,.26022604E-3,.6638E-4,0
SITRO-AIS 10 (BURDAEV),2023-091AK,2026-07-09T06:58:10.024320,15.39473618,.00054113,97.5071,261.3724,5.6180,354.5125,0,U,57199,999,16816,.40538055E-3,.15832E-3,0
SITRO-AIS 9 (SHCHUKIN),2023-091AM,2026-07-09T06:12:52.884288,15.38961967,.00056957,97.5069,261.0525,5.7312,354.3997,0,U,57201,999,16814,.39665636E-3,.15232E-3,0
SITRO-AIS 12 (SMIRENNIY),2023-091AQ,2026-07-09T07:26:56.442336,15.39256749,.00052004,97.5082,261.5863,359.1925,0.9311,0,U,57204,999,16817,.40256767E-3,.15609E-3,0
SITRO-AIS 11 (SHEFFER),2023-091AU,2026-07-09T06:03:44.009280,15.39696508,.00051224,97.5080,261.7878,358.9995,1.1239,0,U,57208,999,16818,.39837438E-3,.1567E-3,0
SITRO-AIS 25,2024-039R,2026-07-09T06:49:15.521088,14.93621925,.01424171,95.3896,250.2773,250.4648,108.1151,0,U,59066,999,12802,.14204597E-3,.1794E-4,0
SITRO-AIS 26,2024-039S,2026-07-09T06:55:36.672960,14.93414086,.01427495,95.3897,250.1733,251.0615,107.5094,0,U,59067,999,12801,.14366056E-3,.1806E-4,0
SITRO-AIS 27,2024-039T,2026-07-09T07:40:16.413888,14.93838708,.01418459,95.3901,250.4768,249.4910,109.1044,0,U,59068,999,12804,.18065878E-3,.2302E-4,0
SITRO-AIS 28,2024-039U,2026-07-09T07:07:04.398816,14.93871044,.01417194,95.3901,250.5094,249.4050,109.1926,0,U,59071,999,12804,.15604446E-3,.1985E-4,0
GRBBETA,2024-128C,2026-07-09T07:40:21.012096,15.06782844,.00377691,61.9890,138.6053,139.4381,220.9537,0,U,60237,999,10960,.18353788E-3,.2568E-4,0
OOV-CUBE (TUBSAT-30),2024-128F,2026-07-08T14:43:31.268640,15.02856535,.00419329,61.9939,150.8549,138.4682,221.9608,0,U,60240,999,10933,.1147729E-3,.1358E-4,0
ROBUSTA-3A (MEDITERRANEE),2024-128J,2026-07-09T05:25:56.713440,15.11930024,.00386303,61.9854,130.2913,132.7445,227.6912,0,U,60243,999,10975,.31032998E-3,.5214E-4,0
LASARSAT,2024-247Q,2026-07-09T06:04:47.656704,15.47760337,.00065601,44.9739,138.0904,123.7678,236.3838,0,U,62391,999,8673,.55885757E-3,.29396E-3,0
CROCUBE,2024-247T,2026-07-08T21:36:49.983264,15.49837294,.00066644,44.9702,137.0377,127.4839,232.6659,0,U,62394,999,8671,.54549448E-3,.30882E-3,0
FORESAIL-1 PRIME,2025-276DS,2026-07-09T00:02:25.105344,15.18903079,.00033282,97.4190,262.8749,58.2823,301.8736,0,U,66778,999,3371,.15351522E-3,.3136E-4,0
KNACKSAT-2,1998-067XZ,2026-07-08T06:51:35.208288,15.61884949,.00082087,51.6260,188.2015,303.7179,56.3032,0,U,67683,999,2357,.40782476E-3,.35828E-3,0
